start=new Date('2023-02-08T00:00:00.000Z').valueOf();
sats=[{"MEAN_MOTION_DOT":"0.00002119","OBJECT_ID":"2021-009AY","APOAPSIS":"548.235","TIME_SYSTEM":"UTC","CLASSIFICATION_TYPE":"U","MEAN_MOTION":"15.06416946","BSTAR":"0.00016106000000","TLE_LINE2":"2 47594  53.0567  57.3943 0001550 101.2022 258.9142 15.06416946110765","OBJECT_NAME":"STARLINK-1999","CENTER_NAME":"EARTH","EPHEMERIS_TYPE":"0","SITE":"AFETR","RA_OF_ASC_NODE":"57.3943","SEMIMAJOR_AXIS":"6925.297","INCLINATION":"53.0567","LAUNCH_DATE":"2021-02-04","NORAD_CAT_ID":"47594","ELEMENT_SET_NO":"999","COUNTRY_CODE":"US","TLE_LINE1":"1 47594U 21009AY  23038.47402130  .00002119  00000-0  16106-3 0  9998","ARG_OF_PERICENTER":"101.2022","OBJECT_TYPE":"PAYLOAD","RCS_SIZE":"LARGE","MEAN_ANOMALY":"258.9142","MEAN_ELEMENT_THEORY":"SGP4","REV_AT_EPOCH":"11076","MEAN_MOTION_DDOT":"0.0000000000000","EPOCH":"2023-02-07T11:22:35.440320","ECCENTRICITY":"0.00015500","REF_FRAME":"TEME","GP_ID":"224703317","PERIOD":"95.591","DECAY_DATE":null,"FILE":"3777208","PERIAPSIS":"546.088"},{"GP_ID":"224703559","PERIOD":"95.591","REF_FRAME":"TEME","EPOCH":"2023-02-07T11:01:22.179072","ECCENTRICITY":"0.00015330","PERIAPSIS":"546.105","FILE":"3777208","DECAY_DATE":null,"ARG_OF_PERICENTER":"97.0774","TLE_LINE1":"1 47595U 21009AZ  23038.45928448  .00004275  00000-0  30561-3 0  9998","COUNTRY_CODE":"US","ELEMENT_SET_NO":"999","NORAD_CAT_ID":"47595","MEAN_MOTION_DDOT":"0.0000000000000","REV_AT_EPOCH":"11076","MEAN_ANOMALY":"263.0389","MEAN_ELEMENT_THEORY":"SGP4","RCS_SIZE":"LARGE","OBJECT_TYPE":"PAYLOAD","SEMIMAJOR_AXIS":"6925.302","RA_OF_ASC_NODE":"57.4641","EPHEMERIS_TYPE":"0","SITE":"AFETR","LAUNCH_DATE":"2021-02-04","INCLINATION":"53.0547","BSTAR":"0.00030561000000","MEAN_MOTION":"15.06415194","CLASSIFICATION_TYPE":"U","TIME_SYSTEM":"UTC","APOAPSIS":"548.229","OBJECT_ID":"2021-009AZ","MEAN_MOTION_DOT":"0.00004275","CENTER_NAME":"EARTH","OBJECT_NAME":"STARLINK-2000","TLE_LINE2":"2 47595  53.0547  57.4641 0001533  97.0774 263.0389 15.06415194110761"},{"BSTAR":"0.00055589000000","MEAN_MOTION":"15.06424106","TIME_SYSTEM":"UTC","CLASSIFICATION_TYPE":"U","APOAPSIS":"548.211","OBJECT_ID":"2021-009BA","MEAN_MOTION_DOT":"0.00008013","CENTER_NAME":"EARTH","OBJECT_NAME":"STARLINK-2001","TLE_LINE2":"2 47596  53.0533  57.1522 0001547  88.8335 271.2831 15.06424106110775","SEMIMAJOR_AXIS":"6925.275","RA_OF_ASC_NODE":"57.1522","SITE":"AFETR","EPHEMERIS_TYPE":"0","LAUNCH_DATE":"2021-02-04","INCLINATION":"53.0533","ARG_OF_PERICENTER":"88.8335","TLE_LINE1":"1 47596U 21009BA  23038.52931678  .00008013  00000-0  55589-3 0  9997","COUNTRY_CODE":"US","ELEMENT_SET_NO":"999","NORAD_CAT_ID":"47596","MEAN_MOTION_DDOT":"0.0000000000000","REV_AT_EPOCH":"11077","MEAN_ANOMALY":"271.2831","MEAN_ELEMENT_THEORY":"SGP4","RCS_SIZE":"LARGE","OBJECT_TYPE":"PAYLOAD","GP_ID":"224702323","PERIOD":"95.591","REF_FRAME":"TEME","ECCENTRICITY":"0.00015470","EPOCH":"2023-02-07T12:42:12.969792","PERIAPSIS":"546.068","FILE":"3777208","DECAY_DATE":null},{"INCLINATION":"53.0532","LAUNCH_DATE":"2021-02-04","EPHEMERIS_TYPE":"0","SITE":"AFETR","SEMIMAJOR_AXIS":"6925.262","RA_OF_ASC_NODE":"56.8933","TLE_LINE2":"2 47597  53.0532  56.8933 0001538  87.9897 272.1269 15.06428244110783","CENTER_NAME":"EARTH","OBJECT_NAME":"STARLINK-2002","MEAN_MOTION_DOT":"0.00020183","OBJECT_ID":"2021-009BB","TIME_SYSTEM":"UTC","CLASSIFICATION_TYPE":"U","APOAPSIS":"548.192","MEAN_MOTION":"15.06428244","BSTAR":"0.00136890000000","DECAY_DATE":null,"PERIAPSIS":"546.062","FILE":"3777208","ECCENTRICITY":"0.00015380","EPOCH":"2023-02-07T14:07:08.610240","REF_FRAME":"TEME","GP_ID":"224702569","PERIOD":"95.590","OBJECT_TYPE":"PAYLOAD","MEAN_ELEMENT_THEORY":"SGP4","MEAN_ANOMALY":"272.1269","RCS_SIZE":"LARGE","MEAN_MOTION_DDOT":"0.0000000000000","REV_AT_EPOCH":"11078","NORAD_CAT_ID":"47597","COUNTRY_CODE":"US","ELEMENT_SET_NO":"999","ARG_OF_PERICENTER":"87.9897","TLE_LINE1":"1 47597U 21009BB  23038.58829410  .00020183  00000-0  13689-2 0  9990"},{"TIME_SYSTEM":"UTC","CLASSIFICATION_TYPE":"U","APOAPSIS":"548.523","BSTAR":"0.00006749800000","MEAN_MOTION":"15.06400521","MEAN_MOTION_DOT":"0.00000724","OBJECT_ID":"2021-009BC","CENTER_NAME":"EARTH","OBJECT_NAME":"STARLINK-2003","TLE_LINE2":"2 47598  53.0545  25.3512 0001893  90.0965 270.0241 15.06400521111266","SEMIMAJOR_AXIS":"6925.347","RA_OF_ASC_NODE":"25.3512","SITE":"AFETR","EPHEMERIS_TYPE":"0","LAUNCH_DATE":"2021-02-04","INCLINATION":"53.0545","COUNTRY_CODE":"US","ELEMENT_SET_NO":"999","ARG_OF_PERICENTER":"90.0965","TLE_LINE1":"1 47598U 21009BC  23038.93017111  .00000724  00000-0  67498-4 0  9995","NORAD_CAT_ID":"47598","MEAN_MOTION_DDOT":"0.0000000000000","REV_AT_EPOCH":"11126","OBJECT_TYPE":"PAYLOAD","MEAN_ELEMENT_THEORY":"SGP4","MEAN_ANOMALY":"270.0241","RCS_SIZE":"LARGE","REF_FRAME":"TEME","PERIOD":"95.592","GP_ID":"224741482","EPOCH":"2023-02-07T22:19:26.783904","ECCENTRICITY":"0.00018930","PERIAPSIS":"545.901","FILE":"3777976","DECAY_DATE":null},{"REV_AT_EPOCH":"11130","MEAN_MOTION_DDOT":"0.0000000000000","RCS_SIZE":"LARGE","MEAN_ELEMENT_THEORY":"SGP4","MEAN_ANOMALY":"275.5949","OBJECT_TYPE":"PAYLOAD","TLE_LINE1":"1 47599U 21009BD  23038.32290697  .00004517  00000-0  32180-3 0  9994","ARG_OF_PERICENTER":"84.5216","ELEMENT_SET_NO":"999","COUNTRY_CODE":"US","NORAD_CAT_ID":"47599","FILE":"3777208","PERIAPSIS":"546.099","DECAY_DATE":null,"GP_ID":"224704060","PERIOD":"95.591","REF_FRAME":"TEME","ECCENTRICITY":"0.00015430","EPOCH":"2023-02-07T07:44:59.162208","OBJECT_NAME":"STARLINK-2004","CENTER_NAME":"EARTH","TLE_LINE2":"2 47599  53.0549  18.0738 0001543  84.5216 275.5949 15.06415125111305","BSTAR":"0.00032180000000","MEAN_MOTION":"15.06415125","APOAPSIS":"548.236","TIME_SYSTEM":"UTC","CLASSIFICATION_TYPE":"U","OBJECT_ID":"2021-009BD","MEAN_MOTION_DOT":"0.00004517","LAUNCH_DATE":"2021-02-04","INCLINATION":"53.0549","RA_OF_ASC_NODE":"18.0738","SEMIMAJOR_AXIS":"6925.302","SITE":"AFETR","EPHEMERIS_TYPE":"0"},{"RA_OF_ASC_NODE":"17.9302","SEMIMAJOR_AXIS":"6925.281","EPHEMERIS_TYPE":"0","SITE":"AFETR","LAUNCH_DATE":"2021-02-04","INCLINATION":"53.0568","APOAPSIS":"548.182","CLASSIFICATION_TYPE":"U","TIME_SYSTEM":"UTC","BSTAR":"0.00024931000000","MEAN_MOTION":"15.06422142","MEAN_MOTION_DOT":"0.00003436","OBJECT_ID":"2021-009BE","OBJECT_NAME":"STARLINK-2005","CENTER_NAME":"EARTH","TLE_LINE2":"2 47600  53.0568  17.9302 0001496  94.5747 265.5413 15.06422142111314","REF_FRAME":"TEME","GP_ID":"224702824","PERIOD":"95.591","EPOCH":"2023-02-07T08:22:07.014720","ECCENTRICITY":"0.00014960","FILE":"3777208","PERIAPSIS":"546.110","DECAY_DATE":null,"ELEMENT_SET_NO":"999","COUNTRY_CODE":"US","TLE_LINE1":"1 47600U 21009BE  23038.34869230  .00003436  00000-0  24931-3 0  9998","ARG_OF_PERICENTER":"94.5747","NORAD_CAT_ID":"47600","REV_AT_EPOCH":"11131","MEAN_MOTION_DDOT":"0.0000000000000","OBJECT_TYPE":"PAYLOAD","RCS_SIZE":"LARGE","MEAN_ANOMALY":"265.5413","MEAN_ELEMENT_THEORY":"SGP4"},{"NORAD_CAT_ID":"47601","ARG_OF_PERICENTER":"102.7623","TLE_LINE1":"1 47601U 21009BF  23038.32659046  .00002825  00000-0  20838-3 0  9992","COUNTRY_CODE":"US","ELEMENT_SET_NO":"999","MEAN_ELEMENT_THEORY":"SGP4","MEAN_ANOMALY":"257.3522","RCS_SIZE":"LARGE","OBJECT_TYPE":"PAYLOAD","MEAN_MOTION_DDOT":"0.0000000000000","REV_AT_EPOCH":"11130","EPOCH":"2023-02-07T07:50:17.415744","ECCENTRICITY":"0.00013950","GP_ID":"224703070","PERIOD":"95.591","REF_FRAME":"TEME","DECAY_DATE":null,"PERIAPSIS":"546.211","FILE":"3777208","OBJECT_ID":"2021-009BF","MEAN_MOTION_DOT":"0.00002825","BSTAR":"0.00020838000000","MEAN_MOTION":"15.06411768","CLASSIFICATION_TYPE":"U","TIME_SYSTEM":"UTC","APOAPSIS":"548.144","TLE_LINE2":"2 47601  53.0555  18.0526 0001395 102.7623 257.3522 15.06411768111305","CENTER_NAME":"EARTH","OBJECT_NAME":"STARLINK-2006","SITE":"AFETR","EPHEMERIS_TYPE":"0","SEMIMAJOR_AXIS":"6925.312","RA_OF_ASC_NODE":"18.0526","INCLINATION":"53.0555","LAUNCH_DATE":"2021-02-04"},{"PERIAPSIS":"546.263","FILE":"3777208","DECAY_DATE":null,"REF_FRAME":"TEME","GP_ID":"224703318","PERIOD":"95.592","EPOCH":"2023-02-07T08:20:48.779520","ECCENTRICITY":"0.00013490","MEAN_MOTION_DDOT":"0.0000000000000","REV_AT_EPOCH":"11116","OBJECT_TYPE":"PAYLOAD","MEAN_ANOMALY":"255.3230","MEAN_ELEMENT_THEORY":"SGP4","RCS_SIZE":"LARGE","COUNTRY_CODE":"US","ELEMENT_SET_NO":"999","ARG_OF_PERICENTER":"104.7908","TLE_LINE1":"1 47602U 21009BG  23038.34778680  .00002160  00000-0  16382-3 0  9992","NORAD_CAT_ID":"47602","LAUNCH_DATE":"2021-02-04","INCLINATION":"53.0542","SEMIMAJOR_AXIS":"6925.332","RA_OF_ASC_NODE":"27.9650","SITE":"AFETR","EPHEMERIS_TYPE":"0","CENTER_NAME":"EARTH","OBJECT_NAME":"STARLINK-2007","TLE_LINE2":"2 47602  53.0542  27.9650 0001349 104.7908 255.3230 15.06405424111166","CLASSIFICATION_TYPE":"U","TIME_SYSTEM":"UTC","APOAPSIS":"548.131","BSTAR":"0.00016382000000","MEAN_MOTION":"15.06405424","MEAN_MOTION_DOT":"0.00002160","OBJECT_ID":"2021-009BG"},{"NORAD_CAT_ID":"47603","ELEMENT_SET_NO":"999","COUNTRY_CODE":"US","TLE_LINE1":"1 47603U 21009BH  23038.42611761  .00000935  00000-0  81627-4 0  9991","ARG_OF_PERICENTER":"83.6767","OBJECT_TYPE":"PAYLOAD","RCS_SIZE":"LARGE","MEAN_ANOMALY":"276.4401","MEAN_ELEMENT_THEORY":"SGP4","REV_AT_EPOCH":"11135","MEAN_MOTION_DDOT":"0.0000000000000","ECCENTRICITY":"0.00015690","EPOCH":"2023-02-07T10:13:36.561504","REF_FRAME":"TEME","GP_ID":"224716422","PERIOD":"95.592","DECAY_DATE":null,"FILE":"3777744","PERIAPSIS":"546.118","MEAN_MOTION_DOT":"0.00000935","OBJECT_ID":"2021-009BH","APOAPSIS":"548.292","TIME_SYSTEM":"UTC","CLASSIFICATION_TYPE":"U","BSTAR":"0.00008162700000","MEAN_MOTION":"15.06402808","TLE_LINE2":"2 47603  53.0558  57.6156 0001569  83.6767 276.4401 15.06402808111355","OBJECT_NAME":"STARLINK-2008","CENTER_NAME":"EARTH","SITE":"AFETR","EPHEMERIS_TYPE":"0","RA_OF_ASC_NODE":"57.6156","SEMIMAJOR_AXIS":"6925.340","INCLINATION":"53.0558","LAUNCH_DATE":"2021-02-04"}];
